{"type": "FeatureCollection", "features": [ {"type": "Feature", "properties": {"norad_id": 34529, "name": "IRIDIUM 33 DEB", "group": "iridium-33-debris", "lat": -60.76257630050422, "lon": -136.67717383056674, "alt_km": 761.8412240729012, "timestamp": "2025-12-09T11:33:55.185942+00:00", "meta": {"OBJECT_NAME": "IRIDIUM 33 DEB", "OBJECT_ID": "1997-051HW", "EPOCH": "2025-12-09T03:46:56.685792", "MEAN_MOTION": 14.40611183, "ECCENTRICITY": 0.0004351, "INCLINATION": 86.3644, "RA_OF_ASC_NODE": 36.9388, "ARG_OF_PERICENTER": 189.2573, "MEAN_ANOMALY": 170.8546, "EPHEMERIS_TYPE": 0, "CLASSIFICATION_TYPE": "U", "NORAD_CAT_ID": 34529, "ELEMENT_SET_NO": 999, "REV_AT_EPOCH": 88090, "BSTAR": 0.00017454, "MEAN_MOTION_DOT": 5.76e-06, "MEAN_MOTION_DDOT": 0}, "tle": {"line1": "1 34529U 97051HW  25343.15760053  .00000576  00000+0  17454-3 0  9990", "line2": "2 34529  86.3644  36.9388 0004351 189.2573 170.8546 14.40611183880906"}}, "geometry": {"type": "Point", "coordinates": [-136.67717383056674, -60.76257630050422]}}, {"type": "Feature", "properties": {"norad_id": 34538, "name": "IRIDIUM 33 DEB", "group": "iridium-33-debris", "lat": 54.434022082970344, "lon": 12.207209999217243, "alt_km": 738.8180889063133, "timestamp": "2025-12-09T11:33:55.185952+00:00", "meta": {"OBJECT_NAME": "IRIDIUM 33 DEB", "OBJECT_ID": "1997-051JF", "EPOCH": "2025-12-09T01:27:44.676000", "MEAN_MOTION": 14.42613154, "ECCENTRICITY": 0.0033259, "INCLINATION": 86.2774, "RA_OF_ASC_NODE": 7.1673, "ARG_OF_PERICENTER": 340.491, "MEAN_ANOMALY": 49.0054, "EPHEMERIS_TYPE": 0, "CLASSIFICATION_TYPE": "U", "NORAD_CAT_ID": 34538, "ELEMENT_SET_NO": 999, "REV_AT_EPOCH": 87703, "BSTAR": 0.0011231, "MEAN_MOTION_DOT": 3.773e-05, "MEAN_MOTION_DDOT": 0}, "tle": {"line1": "1 34538U 97051JF  25343.06093375  .00003773  00000+0  11231-2 0  9994", "line2": "2 34538  86.2774   7.1673 0033259 340.4910  49.0054 14.42613154877034"}}, "geometry": {"type": "Point", "coordinates": [12.207209999217243, 54.434022082970344]}}, {"type": "Feature", "properties": {"norad_id": 34540, "name": "IRIDIUM 33 DEB", "group": "iridium-33-debris", "lat": 86.30688480692353, "lon": 40.5879834769502, "alt_km": 635.2149221380814, "timestamp": "2025-12-09T11:33:55.185962+00:00", "meta": {"OBJECT_NAME": "IRIDIUM 33 DEB", "OBJECT_ID": "1997-051JH", "EPOCH": "2025-12-08T22:22:37.047936", "MEAN_MOTION": 14.75190663, "ECCENTRICITY": 0.0015753, "INCLINATION": 86.3106, "RA_OF_ASC_NODE": 309.347, "ARG_OF_PERICENTER": 172.6926, "MEAN_ANOMALY": 241.175, "EPHEMERIS_TYPE": 0, "CLASSIFICATION_TYPE": "U", "NORAD_CAT_ID": 34540, "ELEMENT_SET_NO": 999, "REV_AT_EPOCH": 88965, "BSTAR": 0.0020556, "MEAN_MOTION_DOT": 0.0001395, "MEAN_MOTION_DDOT": 0}, "tle": {"line1": "1 34540U 97051JH  25342.93237324  .00013950  00000+0  20556-2 0  9994", "line2": "2 34540  86.3106 309.3470 0015753 172.6926 241.1750 14.75190663889650"}}, "geometry": {"type": "Point", "coordinates": [40.5879834769502, 86.30688480692353]}}, {"type": "Feature", "properties": {"norad_id": 34648, "name": "IRIDIUM 33 DEB", "group": "iridium-33-debris", "lat": -82.3933588426548, "lon": 131.4610708323579, "alt_km": 768.1350649735405, "timestamp": "2025-12-09T11:33:55.185972+00:00", "meta": {"OBJECT_NAME": "IRIDIUM 33 DEB", "OBJECT_ID": "1997-051JZ", "EPOCH": "2025-12-08T20:41:39.004800", "MEAN_MOTION": 14.11300262, "ECCENTRICITY": 0.01839546, "INCLINATION": 86.3913, "RA_OF_ASC_NODE": 283.5113, "ARG_OF_PERICENTER": 310.9542, "MEAN_ANOMALY": 47.5843, "EPHEMERIS_TYPE": 0, "CLASSIFICATION_TYPE": "U", "NORAD_CAT_ID": 34648, "ELEMENT_SET_NO": 999, "REV_AT_EPOCH": 84906, "BSTAR": 0.013206348, "MEAN_MOTION_DOT": 0.00028062, "MEAN_MOTION_DDOT": 0}, "tle": {"line1": "1 34648U 97051JZ  25342.86225700  .00028062  00000+0  13206-1 0  9993", "line2": "2 34648  86.3913 283.5113 0183954 310.9542  47.5843 14.11300262849062"}}, "geometry": {"type": "Point", "coordinates": [131.4610708323579, -82.3933588426548]}}, {"type": "Feature", "properties": {"norad_id": 34651, "name": "IRIDIUM 33 DEB", "group": "iridium-33-debris", "lat": 26.912143308236693, "lon": -39.92693001758986, "alt_km": 755.0148477617104, "timestamp": "2025-12-09T11:33:55.185983+00:00", "meta": {"OBJECT_NAME": "IRIDIUM 33 DEB", "OBJECT_ID": "1997-051KC", "EPOCH": "2025-12-08T21:21:49.899168", "MEAN_MOTION": 14.25711995, "ECCENTRICITY": 0.0142002, "INCLINATION": 86.2851, "RA_OF_ASC_NODE": 142.2145, "ARG_OF_PERICENTER": 216.1504, "MEAN_ANOMALY": 143.0026, "EPHEMERIS_TYPE": 0, "CLASSIFICATION_TYPE": "U", "NORAD_CAT_ID": 34651, "ELEMENT_SET_NO": 999, "REV_AT_EPOCH": 85841, "BSTAR": 0.0042946, "MEAN_MOTION_DOT": 0.00011352, "MEAN_MOTION_DDOT": 0}, "tle": {"line1": "1 34651U 97051KC  25342.89016087  .00011352  00000+0  42946-2 0  9994", "line2": "2 34651  86.2851 142.2145 0142002 216.1504 143.0026 14.25711995858414"}}, "geometry": {"type": "Point", "coordinates": [-39.92693001758986, 26.912143308236693]}}, {"type": "Feature", "properties": {"norad_id": 34652, "name": "IRIDIUM 33 DEB", "group": "iridium-33-debris", "lat": 39.05353841522021, "lon": 158.46764695231695, "alt_km": 702.1276051702143, "timestamp": "2025-12-09T11:33:55.185994+00:00", "meta": {"OBJECT_NAME": "IRIDIUM 33 DEB", "OBJECT_ID": "1997-051KD", "EPOCH": "2025-12-08T10:58:52.274208", "MEAN_MOTION": 14.61994532, "ECCENTRICITY": 0.00263276, "INCLINATION": 86.3309, "RA_OF_ASC_NODE": 341.9078, "ARG_OF_PERICENTER": 313.8102, "MEAN_ANOMALY": 199.1921, "EPHEMERIS_TYPE": 0, "CLASSIFICATION_TYPE": "U", "NORAD_CAT_ID": 34652, "ELEMENT_SET_NO": 999, "REV_AT_EPOCH": 88421, "BSTAR": 0.0013948529, "MEAN_MOTION_DOT": 7.048e-05, "MEAN_MOTION_DDOT": 0}, "tle": {"line1": "1 34652U 97051KD  25342.45754947  .00007048  00000+0  13949-2 0  9999", "line2": "2 34652  86.3309 341.9078 0026327 313.8102 199.1921 14.61994532884210"}}, "geometry": {"type": "Point", "coordinates": [158.46764695231695, 39.05353841522021]}}, {"type": "Feature", "properties": {"norad_id": 34690, "name": "IRIDIUM 33 DEB", "group": "iridium-33-debris", "lat": 83.92498496589695, "lon": 74.93119437815682, "alt_km": 696.1394315095094, "timestamp": "2025-12-09T11:33:55.186004+00:00", "meta": {"OBJECT_NAME": "IRIDIUM 33 DEB", "OBJECT_ID": "1997-051KM", "EPOCH": "2025-12-08T22:13:37.657056", "MEAN_MOTION": 14.5507276, "ECCENTRICITY": 0.0011287, "INCLINATION": 86.378, "RA_OF_ASC_NODE": 38.6486, "ARG_OF_PERICENTER": 40.9093, "MEAN_ANOMALY": 14.7923, "EPHEMERIS_TYPE": 0, "CLASSIFICATION_TYPE": "U", "NORAD_CAT_ID": 34690, "ELEMENT_SET_NO": 999, "REV_AT_EPOCH": 88039, "BSTAR": 0.00058226, "MEAN_MOTION_DOT": 2.533e-05, "MEAN_MOTION_DDOT": 0}, "tle": {"line1": "1 34690U 97051KM  25342.92613029  .00002533  00000+0  58226-3 0  9990", "line2": "2 34690  86.3780  38.6486 0011287  40.9093  14.7923 14.55072760880396"}}, "geometry": {"type": "Point", "coordinates": [74.93119437815682, 83.92498496589695]}}, {"type": "Feature", "properties": {"norad_id": 34693, "name": "IRIDIUM 33 DEB", "group": "iridium-33-debris", "lat": 7.116010076075394, "lon": -54.09635099327474, "alt_km": 481.296230056445, "timestamp": "2025-12-09T11:33:55.186014+00:00", "meta": {"OBJECT_NAME": "IRIDIUM 33 DEB", "OBJECT_ID": "1997-051KQ", "EPOCH": "2025-12-08T21:28:44.929344", "MEAN_MOTION": 15.26526055, "ECCENTRICITY": 0.0014837, "INCLINATION": 86.3061, "RA_OF_ASC_NODE": 305.7324, "ARG_OF_PERICENTER": 58.9741, "MEAN_ANOMALY": 325.0117, "EPHEMERIS_TYPE": 0, "CLASSIFICATION_TYPE": "U", "NORAD_CAT_ID": 34693, "ELEMENT_SET_NO": 999, "REV_AT_EPOCH": 88856, "BSTAR": 0.0052511, "MEAN_MOTION_DOT": 0.00139885, "MEAN_MOTION_DDOT": 0}, "tle": {"line1": "1 34693U 97051KQ  25342.89496446  .00139885  00000+0  52511-2 0  9992", "line2": "2 34693  86.3061 305.7324 0014837  58.9741 325.0117 15.26526055888563"}}, "geometry": {"type": "Point", "coordinates": [-54.09635099327474, 7.116010076075394]}}, {"type": "Feature", "properties": {"norad_id": 34696, "name": "IRIDIUM 33 DEB", "group": "iridium-33-debris", "lat": 72.55550019579358, "lon": -163.22238432392245, "alt_km": 653.8203583942832, "timestamp": "2025-12-09T11:33:55.186024+00:00", "meta": {"OBJECT_NAME": "IRIDIUM 33 DEB", "OBJECT_ID": "1997-051KT", "EPOCH": "2025-12-09T03:00:36.491040", "MEAN_MOTION": 14.6478549, "ECCENTRICITY": 0.0074263, "INCLINATION": 86.1848, "RA_OF_ASC_NODE": 29.204, "ARG_OF_PERICENTER": 179.704, "MEAN_ANOMALY": 209.5793, "EPHEMERIS_TYPE": 0, "CLASSIFICATION_TYPE": "U", "NORAD_CAT_ID": 34696, "ELEMENT_SET_NO": 999, "REV_AT_EPOCH": 86620, "BSTAR": 0.0059272, "MEAN_MOTION_DOT": 0.00033047, "MEAN_MOTION_DDOT": 0}, "tle": {"line1": "1 34696U 97051KT  25343.12542235  .00033047  00000+0  59272-2 0  9994", "line2": "2 34696  86.1848  29.2040 0074263 179.7040 209.5793 14.64785490866207"}}, "geometry": {"type": "Point", "coordinates": [-163.22238432392245, 72.55550019579358]}}, {"type": "Feature", "properties": {"norad_id": 34765, "name": "IRIDIUM 33 DEB", "group": "iridium-33-debris", "lat": -74.40925606929842, "lon": 20.89633976120216, "alt_km": 759.3919171629695, "timestamp": "2025-12-09T11:33:55.186034+00:00", "meta": {"OBJECT_NAME": "IRIDIUM 33 DEB", "OBJECT_ID": "1997-051LJ", "EPOCH": "2025-12-09T03:49:56.530848", "MEAN_MOTION": 14.40450451, "ECCENTRICITY": 0.0015089, "INCLINATION": 86.3395, "RA_OF_ASC_NODE": 34.2977, "ARG_OF_PERICENTER": 223.9974, "MEAN_ANOMALY": 191.2679, "EPHEMERIS_TYPE": 0, "CLASSIFICATION_TYPE": "U", "NORAD_CAT_ID": 34765, "ELEMENT_SET_NO": 999, "REV_AT_EPOCH": 87562, "BSTAR": 0.0005453, "MEAN_MOTION_DOT": 1.754e-05, "MEAN_MOTION_DDOT": 0}, "tle": {"line1": "1 34765U 97051LJ  25343.15968207  .00001754  00000+0  54530-3 0  9998", "line2": "2 34765  86.3395  34.2977 0015089 223.9974 191.2679 14.40450451875623"}}, "geometry": {"type": "Point", "coordinates": [20.89633976120216, -74.40925606929842]}}]}